{
  "type": "FeatureCollection",
  "features": [
    {
      "type": "Feature",
      "properties": {
        "norad_id": 19071,
        "name": "OSCAR 32",
        "group": "nnss",
        "lat": 32.24041226352602,
        "lon": 16.220319659699154,
        "alt_km": 1265.5428464275674,
        "timestamp": "2025-12-09T11:33:55.068346+00:00",
        "meta_object_name": "OSCAR 32",
        "meta_object_id": "1988-033B",
        "meta_epoch": "2025-12-09T02:38:01.161024",
        "meta_mean_motion": 13.27953293,
        "meta_eccentricity": 0.0188061,
        "meta_inclination": 90.322,
        "meta_ra_of_asc_node": 16.4119,
        "meta_arg_of_pericenter": 176.8734,
        "meta_mean_anomaly": 238.6698,
        "meta_ephemeris_type": 0,
        "meta_classification_type": "U",
        "meta_norad_cat_id": 19071,
        "meta_element_set_no": 999,
        "meta_rev_at_epoch": 82217,
        "meta_bstar": 0.00018385,
        "meta_mean_motion_dot": 1e-06,
        "meta_mean_motion_ddot": 0,
        "tle_line1": "1 19071U 88033B   25343.10973566  .00000100  00000+0  18385-3 0  9992",
        "tle_line2": "2 19071  90.3220  16.4119 0188061 176.8734 238.6698 13.27953293822174"
      },
      "geometry": {
        "type": "Point",
        "coordinates": [
          16.220319659699154,
          32.24041226352602
        ]
      }
    },
    {
      "type": "Feature",
      "properties": {
        "norad_id": 19223,
        "name": "NOVA 2",
        "group": "nnss",
        "lat": -70.76766577964334,
        "lon": 78.23946141650403,
        "alt_km": 1183.4687841519253,
        "timestamp": "2025-12-09T11:33:55.068356+00:00",
        "meta_object_name": "NOVA 2",
        "meta_object_id": "1988-052A",
        "meta_epoch": "2025-12-09T04:58:29.942400",
        "meta_mean_motion": 13.22935312,
        "meta_eccentricity": 0.0030883,
        "meta_inclination": 89.9871,
        "meta_ra_of_asc_node": 78.2768,
        "meta_arg_of_pericenter": 26.4937,
        "meta_mean_anomaly": 36.1047,
        "meta_ephemeris_type": 0,
        "meta_classification_type": "U",
        "meta_norad_cat_id": 19223,
        "meta_element_set_no": 999,
        "meta_rev_at_epoch": 80901,
        "meta_bstar": 0.00020977,
        "meta_mean_motion_dot": 9.7e-07,
        "meta_mean_motion_ddot": 0,
        "tle_line1": "1 19223U 88052A   25343.20729100  .00000097  00000+0  20977-3 0  9991",
        "tle_line2": "2 19223  89.9871  78.2768 0030883  26.4937  36.1047 13.22935312809012"
      },
      "geometry": {
        "type": "Point",
        "coordinates": [
          78.23946141650403,
          -70.76766577964334
        ]
      }
    },
    {
      "type": "Feature",
      "properties": {
        "norad_id": 19419,
        "name": "OSCAR 25",
        "group": "nnss",
        "lat": 45.6180185748474,
        "lon": -159.73083197409204,
        "alt_km": 1131.464740410649,
        "timestamp": "2025-12-09T11:33:55.068373+00:00",
        "meta_object_name": "OSCAR 25",
        "meta_object_id": "1988-074A",
        "meta_epoch": "2025-12-09T04:03:49.082976",
        "meta_mean_motion": 13.42622336,
        "meta_eccentricity": 0.0094313,
        "meta_inclination": 90.0349,
        "meta_ra_of_asc_node": 20.2324,
        "meta_arg_of_pericenter": 256.2044,
        "meta_mean_anomaly": 169.1401,
        "meta_ephemeris_type": 0,
        "meta_classification_type": "U",
        "meta_norad_cat_id": 19419,
        "meta_element_set_no": 999,
        "meta_rev_at_epoch": 82592,
        "meta_bstar": 0.00022176,
        "meta_mean_motion_dot": 1.37e-06,
        "meta_mean_motion_ddot": 0,
        "tle_line1": "1 19419U 88074A   25343.16931809  .00000137  00000+0  22176-3 0  9996",
        "tle_line2": "2 19419  90.0349  20.2324 0094313 256.2044 169.1401 13.42622336825927"
      },
      "geometry": {
        "type": "Point",
        "coordinates": [
          -159.73083197409204,
          45.6180185748474
        ]
      }
    },
    {
      "type": "Feature",
      "properties": {
        "norad_id": 19420,
        "name": "OSCAR 31",
        "group": "nnss",
        "lat": 20.163724657383323,
        "lon": 20.569468146567488,
        "alt_km": 1144.6137959773605,
        "timestamp": "2025-12-09T11:33:55.068395+00:00",
        "meta_object_name": "OSCAR 31",
        "meta_object_id": "1988-074B",
        "meta_epoch": "2025-12-09T04:38:54.524832",
        "meta_mean_motion": 13.42583784,
        "meta_eccentricity": 0.0092591,
        "meta_inclination": 90.0367,
        "meta_ra_of_asc_node": 20.5819,
        "meta_arg_of_pericenter": 250.2365,
        "meta_mean_anomaly": 177.0861,
        "meta_ephemeris_type": 0,
        "meta_classification_type": "U",
        "meta_norad_cat_id": 19420,
        "meta_element_set_no": 999,
        "meta_rev_at_epoch": 82603,
        "meta_bstar": 0.00019416,
        "meta_mean_motion_dot": 1.21e-06,
        "meta_mean_motion_ddot": 0,
        "tle_line1": "1 19420U 88074B   25343.19368663  .00000121  00000+0  19416-3 0  9999",
        "tle_line2": "2 19420  90.0367  20.5819 0092591 250.2365 177.0861 13.42583784826031"
      },
      "geometry": {
        "type": "Point",
        "coordinates": [
          20.569468146567488,
          20.163724657383323
        ]
      }
    }
  ]
}